satname,norad_id,inclination_deg,eccentricity,mean_motion_rev_per_day,perigee_km,apogee_km,l1,l2
STARLINK-1413,45689,53.1563,0.0003315,15.32563221,465.89843612602454,470.4375363318941,1 45689U 20035AJ  26129.68224581  .00028652  00000+0  90669-3 0  9993,2 45689  53.1563 126.0127 0003315  64.5491 295.5853 15.32563221328232
STARLINK-1417,45693,53.0493,0.0005866,15.15456343,515.5472806952093,523.639698105374,1 45693U 20035AN  26129.98730384  .00013991  00000+0  74544-3 0  9998,2 45693  53.0493 135.8289 0005866  48.0722 312.0771 15.15456343328187
STARLINK-1420,45695,53.0455,0.0006767,15.65182701,368.1450646908306,377.2816655750021,1 45695U 20035AQ  26129.29209974  .00050887  00000+0  50677-3 0  9996,2 45695  53.0455  87.3117 0006767  44.7498 315.4061 15.65182701328810
STARLINK-1422,45696,53.1555,0.0003563,15.32684593,465.3673363620064,470.24575573291895,1 45696U 20035AR  26129.94699891  .00030943  00000+0  97424-3 0  9992,2 45696  53.1555 124.7404 0003563  57.8373 302.2974 15.32684593328352
STARLINK-1351,45697,53.0447,0.0006795,15.62971999,374.4860390518761,383.6690936475452,1 45697U 20035AS  26129.28180713  .00053015  00000+0  57558-3 0  9997,2 45697  53.0447  87.4351 0006795  49.4489 310.7115 15.62971999328817
STARLINK-1400,45700,53.0434,0.0005804,15.60642595,381.87395273911716,389.7255305087947,1 45700U 20035AV  26129.89900378  .00058276  00000+0  69143-3 0  9993,2 45700  53.0434  86.5662 0005804  17.6377 342.4836 15.60642595328879
STARLINK-1403,45701,53.157,0.0002699,15.31654643,469.02665702478225,472.72375381326765,1 45701U 20035AW  26129.67946421  .00022978  00000+0  75097-3 0  9994,2 45701  53.1570 113.3207 0002699  68.6962 291.4327 15.31654643328481
STARLINK-1407,45703,53.03,0.0002303,15.69736353,358.0996266216671,361.2030519307373,1 45703U 20035AY  26129.92216433  .00043432  00000+0  36101-3 0  9998,2 45703  53.0300  14.9207 0002303 348.9018  11.1947 15.69736353329887
STARLINK-1411,45706,53.0351,0.000292,15.78249066,333.44109831329206,337.36180476899153,1 45706U 20035BB  26129.91668981  .00104077  00000+0  59065-3 0  9996,2 45706  53.0351  38.8872 0002920 114.5366  44.1443 15.78249066  5986
STARLINK-1423,45710,53.0437,0.000769,15.66094608,364.9031280339077,375.2819050303351,1 45710U 20035BF  26129.27655328  .00047150  00000+0  45323-3 0  9991,2 45710  53.0437  87.0346 0007690  17.5687 342.5593 15.66094608328802
STARLINK-1433,45711,53.0436,0.0007538,15.65723513,366.0711287806289,376.24636705018656,1 45711U 20035BG  26129.95620723  .00036587  00000+0  35865-3 0  9990,2 45711  53.0436  82.2046 0007538  26.8371 333.3033 15.65723513328934
STARLINK-1434,45712,53.0496,0.0003501,15.32068343,467.24479640468417,472.03961140325737,1 45712U 20035BH  26129.33723031  .00019244  00000+0  62303-3 0  9997,2 45712  53.0496  97.9148 0003501  25.2159 334.9012 15.32068343328672
STARLINK-1465,45731,53.0476,0.0001814,15.59848405,386.8680381736867,389.3228273002842,1 45731U 20038B   26129.70724011  .00066167  00000+0  80807-3 0  9996,2 45731  53.0476 288.2046 0001814 194.8098 165.2861 15.59848405325873
STARLINK-1471,45735,53.0444,0.000265,15.52171795,408.58739428192894,412.18531165900276,1 45735U 20038F   26129.94282564  .00017596  00000+0  29260-3 0  9996,2 45735  53.0444 207.8135 0002650  53.0476 307.0775 15.52171795327037
STARLINK-1480,45741,53.0492,0.0003781,15.61240378,381.5162782529633,386.6298615078076,1 45741U 20038M   26129.69373629  .00076315  00000+0  88146-3 0  9990,2 45741  53.0492 281.9817 0003781 285.5675  74.4921 15.61240378325979
STARLINK-1500,45744,53.0348,0.0002451,15.37961657,450.4635794215419,453.8117800695545,1 45744U 20038Q   26129.88853648  .00017458  00000+0  47002-3 0  9997,2 45744  53.0348 264.9548 0002451  91.4484 268.6799 15.37961657326221
STARLINK-1504,45746,53.0202,0.0002859,15.57277704,393.60310210045554,397.4762904353802,1 45746U 20038S   26129.92659217  .00021613  00000+0  29688-3 0  9998,2 45746  53.0202 205.8111 0002859  24.5548 335.5598 15.57277704327049
STARLINK-1506,45747,53.0761,0.0004034,15.27861256,479.43958080381253,484.9745063781811,1 45747U 20038T   26129.92051019  .00005272  00000+0  20383-3 0  9991,2 45747  53.0761 278.7649 0004034  88.5703 271.5758 15.27861256326049
STARLINK-1464,45751,53.0471,0.0001244,15.5185177,410.4750048896876,412.16422169507496,1 45751U 20038X   26129.71959530  .00058088  00000+0  95465-3 0  9994,2 45751  53.0471 272.7763 0001244 282.0553  78.0317 15.51851770326102
STARLINK-1477,45754,53.0522,0.0001736,15.17520382,512.1411281748888,514.5338481171739,1 45754U 20038AA  26129.81427587  .00017797  00000+0  88994-3 0  9991,2 45754  53.0522 294.4563 0001736 162.9691 197.1362 15.17520382325809
STARLINK-1478,45755,53.0459,0.0001923,15.65337183,370.9710970054639,373.5673032300283,1 45755U 20038AB  26129.60733401  .00038009  00000+0  37852-3 0  9990,2 45755  53.0459 260.9624 0001923 331.9905  28.1006 15.65337183326244
STARLINK-1493,45759,53.0477,0.000471,15.60677807,382.5122363645978,388.88376893709574,1 45759U 20038AF  26129.87663104  .00072235  00000+0  85317-3 0  9993,2 45759  53.0477 268.4892 0004710 272.5798  87.4675 15.60677807326161
STARLINK-1494,45760,53.041,0.0006406,15.91221482,294.5863730760002,303.1409463212067,1 45760U 20038AG  26129.91668981  .00158898  20427-4  49610-3 0  9994,2 45760  53.0410 203.6794 0006406 341.3376 345.4949 15.91221482  5964
STARLINK-1502,45764,53.0471,0.000573,15.57001811,392.45807201917887,400.2216224861304,1 45764U 20038AL  26129.66880313  .00060440  00000+0  82227-3 0  9991,2 45764  53.0471 272.5440 0005730 244.5703 115.4716 15.57001811326108
STARLINK-1470,45772,53.0449,0.0001884,15.33235326,464.8776209860953,467.45655476640695,1 45772U 20038AU  26129.59431579  .00026031  00000+0  80793-3 0  9992,2 45772  53.0449 250.4737 0001884 281.8657  78.2133 15.33235326326400
STARLINK-1482,45773,53.1584,0.0002117,15.35487915,458.0241151193577,460.9191586162069,1 45773U 20038AV  26129.65030727  .00024606  00000+0  71199-3 0  9996,2 45773  53.1584 266.7806 0002117 266.5757  93.5003 15.35487915326197
STARLINK-1496,45780,53.046,0.0005819,15.58712999,387.4416481705648,395.3200130218138,1 45780U 20038BC  26129.56780667  .00073453  00000+0  93435-3 0  9990,2 45780  53.0460 244.1722 0005819 341.3441  18.7356 15.58712999326477
STARLINK-1513,45786,53.1586,0.0001114,15.3169741,469.98475013440384,471.5106816491034,1 45786U 20038BJ  26129.67035344  .00000938  00000+0  41997-4 0  9998,2 45786  53.1586 267.6424 0001114 103.9141 256.1984 15.31697410326189
STARLINK-1522,46027,53.0617,0.0001861,15.11991654,528.8411529453624,531.41240872459,1 46027U 20055A   26129.95055126  .00013631  00000+0  80064-3 0  9998,2 46027  53.0617 209.7672 0001861 324.3708  35.7159 15.11991654318148
STARLINK-1523,46028,53.161,0.0001086,15.30178708,474.53436329163105,476.0229251695573,1 46028U 20055B   26129.52626080 -.00000190  00000+0  57101-5 0  9990,2 46028  53.1610 204.1212 0001086  99.9167 260.1956 15.30178708318210
STARLINK-1526,46029,53.1587,0.000127,15.30199912,474.34495642528964,476.08570791766033,1 46029U 20055C   26129.91182235  .00001989  00000+0  79255-4 0  9992,2 46029  53.1587 202.3430 0001270  90.8684 269.2462 15.30199912318262
STARLINK-1555,46032,53.1585,0.0001374,15.3019241,474.2960781967304,476.17938557305297,1 46032U 20055F   26129.89602708  .00002053  00000+0  81436-4 0  9992,2 46032  53.1585 202.3985 0001374  88.9523 271.1635 15.30192410318264
STARLINK-1556,46033,53.1587,9.62e-05,15.30169933,474.64554442618646,475.9641466372668,1 46033U 20055G   26129.48729684 -.00002542  00000+0 -73808-4 0  9990,2 46033  53.1587 204.3075 0000962  69.1453 290.9650 15.30169933318174
STARLINK-1557,46034,53.1601,0.0001113,15.30187808,474.4886906383881,476.01425491242753,1 46034U 20055H   26129.49044708  .00002829  00000+0  10765-3 0  9997,2 46034  53.1601 204.2956 0001113  79.1326 280.9800 15.30187808318175
STARLINK-1558,46035,53.1592,0.0001349,15.30187589,474.3276044855038,476.1766488718822,1 46035U 20055J   26129.49781914  .00001938  00000+0  77565-4 0  9997,2 46035  53.1592 204.2627 0001349 106.9515 253.1634 15.30187589318207
STARLINK-1560,46036,53.1604,0.0001,15.30191315,474.55566358635497,475.9263391866325,1 46036U 20055K   26129.48412163  .00002972  00000+0  11245-3 0  9995,2 46036  53.1604 204.3326 0001000  86.8862 273.2254 15.30191315318207
STARLINK-1567,46038,53.0669,0.0005674,16.40744495,160.1108876983635,167.5347036745079,1 46038U 20055M   26129.91495522  .10208208  12394-4  67510-3 0  9996,2 46038  53.0669 182.5473 0005674 278.8115  81.2290 16.40744495318521
STARLINK-1569,46039,53.16,0.0001181,15.30207927,474.38202284420186,476.00077901250097,1 46039U 20055N   26129.89286596 -.00002866  00000+0 -84662-4 0  9990,2 46039  53.1600 202.4184 0001181  83.9844 276.1292 15.30207927318251
STARLINK-1582,46043,53.158,0.0001163,15.31700136,469.94306546935877,471.5361141641497,1 46043U 20055S   26129.54711551 -.00001801  00000+0 -46293-4 0  9997,2 46043  53.1580 203.7444 0001163  86.3423 273.7712 15.31700136318202
STARLINK-1591,46045,53.1596,0.0001265,15.30191126,474.37461332326075,476.1085181003855,1 46045U 20055U   26129.92552163  .00001532  00000+0  63849-4 0  9998,2 46045  53.1596 202.2701 0001265  85.5123 274.6023 15.30191126318243
STARLINK-1524,46047,53.1591,0.0001193,15.31698049,469.92873934193995,471.5628827806586,1 46047U 20055W   26129.45120139  .00008477  00000+0  28464-3 0  9990,2 46047  53.1591 191.4858 0001193  84.2186 275.8952 15.31698049318372
STARLINK-1527,46048,53.1593,0.0001169,15.31702097,469.9331111949032,471.53437717489396,1 46048U 20055X   26129.44653630  .00002153  00000+0  81126-4 0  9997,2 46048  53.1593 191.4904 0001169  91.7877 268.3258 15.31702097318342
STARLINK-1540,46051,53.1587,0.000135,15.3018748,474.3272445614257,476.1776597135031,1 46051U 20055AA  26129.88387356  .00001131  00000+0  50335-4 0  9991,2 46051  53.1587 189.6017 0001350  92.8082 267.3073 15.30187480318453
